0 ARIANE 5 R/B
1 38742U 12043C   13280.46853928  .00000750  00000-0  37687-3 0  2914
2 38742 005.8908 284.6872 7251236 162.4065 249.9916 02.30830885  9885
0 ARIANE 5 R/B
1 38742U 12043C   13282.19555854  .00000429  00000-0  21907-3 0  2925
2 38742 005.8856 283.9883 7251639 163.8115 245.1130 02.30830791  9926
0 ARIANE 5 R/B
1 38742U 12043C   13284.35406530  .00000872  00000-0  33245-3 0  2932
2 38742 005.8764 283.1030 7252255 165.5834 238.8290 02.30835490  9974
0 ARIANE 5 R/B
1 38742U 12043C   13286.51212547  .00001393  00000-0  50099-3 0  2941
2 38742 005.8687 282.2597 7252438 167.3117 232.2409 02.30843772 10023
0 ARIANE 5 R/B
1 38742U 12043C   13289.10134565  .00001436  00000-0  55675-3 0  2956
2 38742 005.8628 281.2081 7252293 169.4236 224.0130 02.30851914 10082
0 ARIANE 5 R/B
1 38742U 12043C   13290.39492039  .00000910  00000-0  31782-3 0  2973
2 38742 005.8619 280.4821 7254377 170.6963 219.0622 02.30854718 10110
0 ARIANE 5 R/B
1 38742U 12043C   13290.39540166  .00001176  00000-0  41068-3 0  2960
2 38742 005.8488 280.5866 7254401 170.6004 219.4405 02.30852743 10117
0 ARIANE 5 R/B
1 38742U 12043C   13290.39569416  .00000887  00000-0  31046-3 0  2995
2 38742 005.8624 280.6396 7254336 170.5353 219.7066 02.30854894 10116
0 ARIANE 5 R/B
1 38742U 12043C   13291.25874184  .00001258  00000-0  54550-3 0  2967
2 38742 005.8558 280.3364 7252383 171.1775 216.9713 02.30858063 10131
0 ARIANE 5 R/B
1 38742U 12043C   13292.12170791  .00001022  00000-0  47246-3 0  2971
2 38742 005.8519 279.9900 7252548 171.8799 214.1634 02.30858962 10156
0 ARIANE 5 R/B
1 38742U 12043C   13293.41600052  .00001030  00000-0  48914-3 0  2985
2 38742 005.8463 279.4423 7252794 172.9685 209.8448 02.30862600 10189
